P/2018 P4 (PANSTARRS),e,23.1095,353.0621,8.4023,6.682942,0.0570496,0.45063682,82.0923,10/18.0/2022,2000,g 12.0,4.0
# From MPEC 2021-P47
C/2018 P5 (PANSTARRS),e,7.2475,216.2041,131.9329,12.84026,0.0214212,0.64292326,28.4462,10/18.0/2022,2000,g 11.0,4.0
# From MPC118841
C/2018 R3 (Lemmon),e,69.7193,324.6082,112.7492,1560,0.0000160,0.99917655,0.0000,06/07.6761/2019,2000,g  9.5,4.0
# From MPEC 2022-M21
C/2018 R4 (Fuls),e,11.6716,298.5191,345.3253,347.4655,0.0001522,0.99504333,0.0000,03/02.8119/2018,2000,g 14.0,4.0
# From MPC114603
C/2018 R5 (Lemmon),e,103.7493,171.1147,178.1782,22.87627,0.0090080,0.84128682,12.4018,10/18.0/2022,2000,g 11.5,4.0
# From MPEC 2022-QC6
C/2018 S2 (TESS),e,64.1622,85.1047,290.7916,14.35726,0.0181174,0.61878677,26.1143,10/18.0/2022,2000,g  7.5,4.0
# From MPEC 2022-TA0
C/2018 U1 (Lemmon),h,11/03.1754/2021,108.3119,75.4863,180.4772,1.001533,4.993020,2000,5.0,4.0
# From MPC114604
C/2018 V1 (Machholz-Fujikawa-Iwamoto),h,12/02.8383/2018,144.0855,129.0149,89.0503,1.000346,0.389754,2000,12.0,4.0
# From MPC115884
C/2018 V2 (ATLAS),e,159.1675,357.0767,318.9957,25.05139,0.0078606,0.90087082,11.1818,10/18.0/2022,2000,g 15.0,4.0
# From MPC114604
P/2018 VN2 (Leonard),e,18.2622,226.4586,138.8357,4.063987,0.1203027,0.47892024,191.7477,10/18.0/2022,2000,g 15.0,4.0
# From MPEC 2021-P47
A/2018 V3,e,164.9682,308.6883,3.5994,126.8632,0.0006898,0.98942822,0.0000,09/09.0561/2019,2000,g 15.7,2.0
# From MPEC 2022-M21
C/2018 V4 (Africano),e,69.0188,78.2963,359.9363,200.6307,0.0003468,0.98407594,0.0000,03/01.4694/2019,2000,g 12.5,4.0
# From MPEC 2021-P47
P/2018 V5 (Trujillo-Sheppard),e,10.5891,171.2866,260.6585,8.958932,0.0367553,0.47540458,54.2337,10/18.0/2022,2000,g 12.5,4.0
# From MPEC 2021-P47
C/2018 W1 (Catalina),e,83.3588,233.6479,251.2179,21.67968,0.0097639,0.93729624,12.2556,10/18.0/2022,2000,g 15.5,2.0
# From MPEC 2021-P47
C/2018 W2 (Africano),h,09/05.3652/2019,116.6264,181.8161,158.0487,1.000525,1.459738,2000,9.5,4.0
# From MPEC 2022-Q17
A/2018 W3,e,104.8118,251.6690,313.9661,686.1959,0.0000548,0.99374727,0.0000,04/13.0465/2021,2000,g 10.5,2.0
# From MPC119996
C/2018 X2 (Fitzsimmons),e,23.0707,340.8201,161.9640,140.3473,0.0005928,0.98487820,0.0000,07/08.2060/2019,2000,g 12.0,4.0
# From MPC114604
C/2018 X3 (PANSTARRS),e,43.4005,78.8412,359.7378,12.37166,0.0226497,0.78242629,31.4158,10/18.0/2022,2000,g 14.5,4.0
# From MPC118842
C/2018 Y1 (Iwamoto),e,160.4052,147.4979,357.9338,131.9404,0.0006503,0.99027160,0.0000,02/06.2030/2019,2000,g 11.5,4.0
# From MPC114605
P/2018 Y2 (Africano),e,11.6833,297.2220,162.2450,7.453942,0.0484312,0.47905227,67.0956,10/18.0/2022,2000,g 11.5,4.0
# From MPC114605
P/2019 A1 (PANSTARRS),e,13.7487,312.2758,150.7105,5.117289,0.0851421,0.56890367,125.0026,10/18.0/2022,2000,g 16.0,4.0
# From MPEC 2021-P47
P/2019 A2 (ATLAS),e,14.8603,139.4565,323.8709,5.715187,0.0721371,0.38190821,102.9911,10/18.0/2022,2000,g 10.5,4.0
# From MPEC 2022-M21
P/2019 A3 (PANSTARRS),e,15.3748,31.2931,325.6218,3.144857,0.1767269,0.26607892,271.3869,10/18.0/2022,2000,g 16.0,4.0
# From MPEC 2022-L66
P/2019 A4 (PANSTARRS),e,13.3063,119.2436,342.9535,2.613458,0.2332818,0.08708233,328.2541,10/18.0/2022,2000,g 15.0,4.0
# From MPEC 2021-P47
C/2019 A5 (PANSTARRS),e,67.5551,146.6170,355.8308,21.50157,0.0098855,0.70623239,12.1499,10/18.0/2022,2000,g  9.5,4.0
# From MPC114605
P/2019 A6 (Lemmon-PANSTARRS),e,33.2559,280.2134,156.1809,5.358250,0.0794638,0.63970545,120.0070,10/18.0/2022,2000,g 16.0,4.0
# From MPC115884
P/2019 A8 (PANSTARRS),e,2.1943,114.6644,65.9169,4.264751,0.1119086,0.24539290,172.5037,10/18.0/2022,2000,g 16.0,4.0
# From MPC118842
C/2019 A9 (PANSTARRS),e,84.2218,278.3975,237.9264,39.16813,0.0040207,0.96346619,4.7445,10/18.0/2022,2000,g 15.0,4.0
# From MPEC 2022-L66
C/2019 B1 (Africano),e,123.3915,290.3946,174.7792,138.9100,0.0006020,0.98850304,0.0000,03/18.9257/2019,2000,g 16.0,4.0
# From MPC115885
P/2019 B2 (Groeller),e,17.0252,175.7434,1.0615,3.908545,0.1275503,0.36255938,157.4293,10/18.0/2022,2000,g 14.5,4.0
# From MPEC 2022-TA0
C/2019 B3 (PANSTARRS),h,01/20.4387/2021,66.5356,358.4365,263.9579,1.000578,6.824561,2000,5.5,4.0
# From MPEC 2021-P47
C/2019 C1 (ATLAS),e,36.0474,212.3893,319.1071,654.3793,0.0000589,0.98994767,0.0000,05/04.5734/2020,2000,g 10.0,4.0
# From MPEC 2022-O08
C/2019 D1 (Flewelling),e,34.0235,231.6752,70.6488,143.0043,0.0005763,0.98892380,0.0000,05/11.4884/2019,2000,g 13.0,4.0
# From MPEC 2022-TA0
C/2019 E3 (ATLAS),h,11/14.5445/2023,84.2974,347.2524,280.6707,1.000631,10.313287,2000,2.5,4.0
# From MPEC 2022-TA0
C/2019 F1 (ATLAS-Africano),h,06/23.0932/2021,54.1950,38.6900,251.2211,1.003642,3.597879,2000,5.5,4.0
# From MPEC 2021-P47
C/2019 F2 (ATLAS),e,19.2478,175.5112,11.5773,16.64591,0.0145125,0.86510199,16.4830,10/18.0/2022,2000,g 12.0,4.0
# From MPEC 2021-P47
A/2019 G2,e,159.2118,208.1573,82.6104,476.0686,0.0000949,0.99518390,0.0000,12/09.0460/2019,2000,g 16.5,2.0
# From MPEC 2021-F20
A/2019 G3,e,156.8100,49.8747,161.9350,17.21410,0.0138000,0.83437408,19.5093,10/18.0/2022,2000,g 17.1,2.0
# From MPEC 2022-P82
C/2019 G4 (PANSTARRS),h,09/15.9823/2018,138.3662,130.4586,287.8066,1.001950,5.851535,2000,9.5,4.0
# From MPC114607
P/2019 GG21 (PANSTARRS),e,6.0851,340.5633,208.6081,7.470698,0.0482683,0.47199190,60.6561,10/18.0/2022,2000,g 12.0,4.0
# From MPEC 2022-M21
C/2019 H1 (NEOWISE),e,104.4918,269.2512,19.3499,249.3717,0.0002503,0.99259830,0.0000,04/27.9869/2019,2000,g 15.5,4.0
# From MPEC 2022-O08
C/2019 J1 (Lemmon),e,24.5450,98.1365,167.7759,68.50241,0.0017384,0.96373864,2.2403,10/18.0/2022,2000,g 12.0,4.0
# From MPEC 2021-R75
C/2019 J2 (Palomar),e,105.2281,25.5535,98.7156,161.5037,0.0004802,0.98932660,0.0000,07/20.0991/2019,2000,g 13.0,4.0
# From MPC117071
C/2019 J3 (ATLAS),h,08/02.3162/2019,131.3728,270.5823,16.6209,1.000688,2.372893,2000,13.5,4.0
# From MPEC 2022-M21
C/2019 JU6 (ATLAS),e,148.3286,21.7604,95.0119,63803,0.0000001,0.99996793,0.0000,06/01.5863/2019,2000,g 14.5,4.0
# From MPEC 2022-O08
C/2019 K1 (ATLAS),e,87.0780,73.3530,265.7176,31971,0.0000002,0.99993704,0.0000,02/12.8917/2020,2000,g 10.0,4.0
# From MPC119997
C/2019 K4 (Ye),e,105.2965,180.1407,139.8394,1331,0.0000203,0.99829804,0.0000,06/15.8006/2019,2000,g 12.5,4.0
# From MPEC 2021-P47
C/2019 K5 (Young),e,15.3193,177.1264,175.1031,166.3864,0.0004592,0.98774124,0.0000,06/23.0724/2019,2000,g 13.0,4.0
# From MPEC 2021-P47
C/2019 K6 (PANSTARRS),e,132.3830,42.9846,187.6171,1770,0.0000132,0.99778187,0.0000,05/20.1613/2020,2000,g 11.5,4.0
# From MPEC 2022-TA0
C/2019 K7 (Smith),h,06/17.5006/2020,103.5388,307.9490,27.3879,1.000733,4.477872,2000,6.0,4.0
# From MPEC 2021-R75
C/2019 K8 (ATLAS),e,93.1694,291.0389,85.3862,2730,0.0000069,0.99883020,0.0000,07/21.7700/2019,2000,g 11.5,4.0
# From MPC118095
C/2019 L1 (PANSTARRS),e,9.9834,254.4289,50.0398,9.842618,0.0319182,0.70565374,37.1510,10/18.0/2022,2000,g 13.5,4.0
# From MPC115886
C/2019 L2 (NEOWISE),e,152.2100,12.5490,18.8195,24.97541,0.0078965,0.93492567,10.2280,10/18.0/2022,2000,g 16.0,4.0
# From MPEC 2022-TA0
P/2019 LD2 (ATLAS),e,11.6228,179.5974,120.9773,5.231650,0.0823656,0.12704618,77.9550,10/18.0/2022,2000,g  8.5,4.0
# From MPEC 2022-TA0
C/2019 L3 (ATLAS),h,01/09.6270/2022,48.3545,290.7860,171.6120,1.001884,3.554417,2000,4.5,4.0
# From MPC118095
C/2019 LB7 (Kleyna),e,164.2918,3.8847,336.5264,34.60020,0.0048427,0.92807495,6.3036,10/18.0/2022,2000,g 17.0,4.0
# From MPEC 2022-O08
P/2019 M2 (ATLAS),e,12.2748,307.6134,332.5674,3.028321,0.1870256,0.64761553,227.0151,10/18.0/2022,2000,g 21.2,4.0
# From MPC118095
C/2019 M3 (ATLAS),e,99.4949,154.9164,87.8850,13649,0.0000006,0.99982265,0.0000,01/01.3417/2019,2000,g 12.2,4.0
# From MPEC 2022-R68
C/2019 N1 (ATLAS),e,82.4296,13.5737,193.4357,2194,0.0000096,0.99922283,0.0000,12/01.5530/2020,2000,g  7.5,4.0
# From MPEC 2022-A21
C/2019 NJ3 (Lemmon),h,10/22.8115/2020,99.4304,142.4627,246.9020,1.002222,4.362693,2000,9.0,4.0
# From MPEC 2022-ST7
A/2019 O2,e,93.3022,48.2700,129.6532,57.67386,0.0022503,0.83211225,359.6140,10/18.0/2022,2000,g  9.5,2.0
# From MPEC 2022-TA0
C/2019 O3 (Palomar),h,03/09.3523/2021,89.8198,300.4053,60.1174,1.004158,8.820552,2000,3.5,4.0
# From MPEC 2021-P47
A/2019 O4,e,115.0959,354.9079,61.8948,33.20120,0.0051520,0.89017099,5.0509,10/18.0/2022,2000,g 15.5,2.0
# From MPEC 2021-N06
C/2019 Q1 (Lemmon),h,07/20.4385/2020,155.7270,42.4663,56.1669,1.000328,5.001209,2000,8.5,4.0
# From MPC117072
A/2019 Q2,e,159.0316,188.0051,176.3569,57.57637,0.0022560,0.97808989,0.0000,07/22.0268/2019,2000,g 18.0,2.0
# From MPC117072
C/2019 Q3 (PANSTARRS),h,08/21.5129/2018,65.5314,151.3293,152.7787,1.002870,7.263362,2000,8.5,4.0
# From MPC117072
P/2019 S2 (PANSTARRS),e,10.4679,93.1404,217.1256,4.741386,0.0954654,0.20606893,127.3155,10/18.0/2022,2000,g 13.5,4.0
# From MPEC 2022-CN4
P/2019 S3 (PANSTARRS),e,8.6941,150.1581,213.0309,3.415380,0.1561512,0.47122825,179.2747,10/18.0/2022,2000,g 18.3,4.0
# From MPEC 2021-S45
C/2019 S4 (Lemmon),e,92.0633,63.1503,71.3722,231.6983,0.0002795,0.98514202,0.0000,04/07.9410/2020,2000,g 11.0,4.0
# From MPEC 2022-L66
A/2019 T1,e,120.8772,6.9447,91.0720,38.63640,0.0041040,0.88917152,2.6319,10/18.0/2022,2000,g 13.0,2.0
# From MPEC 2022-L66
C/2019 T2 (Lemmon),e,111.4845,155.6459,239.4246,3175,0.0000055,0.99916649,0.0000,04/22.4435/2021,2000,g  9.0,4.0
# From MPEC 2022-TA0
C/2019 T3 (ATLAS),e,121.8474,139.5313,112.4212,3106,0.0000057,0.99808419,0.0000,03/04.0056/2021,2000,g  6.8,4.0
# From MPEC 2022-R68
C/2019 T4 (ATLAS),e,53.6310,199.9389,351.1895,987.0103,0.0000318,0.99570184,0.0000,06/09.0633/2022,2000,g  5.0,4.0
# From MPEC 2021-P47
P/2019 T5 (ATLAS),e,33.4717,247.6368,189.5616,7.996016,0.0435907,0.80937779,51.1530,10/18.0/2022,2000,g 15.0,4.0
# From MPEC 2021-P47
P/2019 T6 (PANSTARRS),e,18.6988,71.2411,328.9635,5.436584,0.0777526,0.62299029,83.5597,10/18.0/2022,2000,g 15.5,4.0
# From MPC118096
P/2019 U4 (PANSTARRS),e,11.6996,200.0008,181.0102,3.520324,0.1492211,0.47596417,167.8481,10/18.0/2022,2000,g 19.0,4.0
# From MPEC 2022-TA0
